{"type": "FeatureCollection", "features": [ {"type": "Feature", "properties": {"norad_id": 57401, "name": "TIANMU-1 09", "group": "weather", "lat": -21.254174361344322, "lon": -152.09183807412668, "alt_km": 488.3851276886626, "timestamp": "2025-12-07T11:27:49.630410+00:00", "meta": {"OBJECT_NAME": "TIANMU-1 09", "OBJECT_ID": "2023-101C", "EPOCH": "2025-12-06T22:00:43.896672", "MEAN_MOTION": 15.2795569, "ECCENTRICITY": 0.00068111, "INCLINATION": 97.2824, "RA_OF_ASC_NODE": 30.2116, "ARG_OF_PERICENTER": 99.614, "MEAN_ANOMALY": 260.5869, "EPHEMERIS_TYPE": 0, "CLASSIFICATION_TYPE": "U", "NORAD_CAT_ID": 57401, "ELEMENT_SET_NO": 999, "REV_AT_EPOCH": 13226, "BSTAR": 0.00041816766, "MEAN_MOTION_DOT": 0.00011348, "MEAN_MOTION_DDOT": 0}, "tle": {"line1": "1 57401U 23101C   25340.91717473  .00011348  00000+0  41817-3 0  9997", "line2": "2 57401  97.2824  30.2116 0006811  99.6140 260.5869 15.27955690132268"}}, "geometry": {"type": "Point", "coordinates": [-152.09183807412668, -21.254174361344322]}}, {"type": "Feature", "properties": {"norad_id": 57402, "name": "TIANMU-1 10", "group": "weather", "lat": 13.010801129396242, "lon": 29.90829957511669, "alt_km": 482.66527347322335, "timestamp": "2025-12-07T11:27:49.630420+00:00", "meta": {"OBJECT_NAME": "TIANMU-1 10", "OBJECT_ID": "2023-101D", "EPOCH": "2025-12-06T21:15:39.045312", "MEAN_MOTION": 15.27945898, "ECCENTRICITY": 0.00085549, "INCLINATION": 97.2906, "RA_OF_ASC_NODE": 31.0246, "ARG_OF_PERICENTER": 100.4622, "MEAN_ANOMALY": 259.7583, "EPHEMERIS_TYPE": 0, "CLASSIFICATION_TYPE": "U", "NORAD_CAT_ID": 57402, "ELEMENT_SET_NO": 999, "REV_AT_EPOCH": 13225, "BSTAR": 0.00044473489, "MEAN_MOTION_DOT": 0.00012075, "MEAN_MOTION_DDOT": 0}, "tle": {"line1": "1 57402U 23101D   25340.88586858  .00012075  00000+0  44473-3 0  9994", "line2": "2 57402  97.2906  31.0246 0008554 100.4622 259.7583 15.27945898132256"}}, "geometry": {"type": "Point", "coordinates": [29.90829957511669, 13.010801129396242]}}, {"type": "Feature", "properties": {"norad_id": 57490, "name": "FENGYUN 3F", "group": "weather", "lat": 21.924897327713698, "lon": -126.60698039945167, "alt_km": 825.2449896286525, "timestamp": "2025-12-07T11:27:49.630430+00:00", "meta": {"OBJECT_NAME": "FENGYUN 3F", "OBJECT_ID": "2023-111A", "EPOCH": "2025-12-06T21:11:37.574592", "MEAN_MOTION": 14.19891245, "ECCENTRICITY": 6.639e-05, "INCLINATION": 98.7093, "RA_OF_ASC_NODE": 49.2708, "ARG_OF_PERICENTER": 90.2781, "MEAN_ANOMALY": 269.8471, "EPHEMERIS_TYPE": 0, "CLASSIFICATION_TYPE": "U", "NORAD_CAT_ID": 57490, "ELEMENT_SET_NO": 999, "REV_AT_EPOCH": 12157, "BSTAR": 0.00011807448, "MEAN_MOTION_DOT": 2.07e-06, "MEAN_MOTION_DDOT": 0}, "tle": {"line1": "1 57490U 23111A   25340.88307378  .00000207  00000+0  11807-3 0  9999", "line2": "2 57490  98.7093  49.2708 0000663  90.2781 269.8471 14.19891245121572"}}, "geometry": {"type": "Point", "coordinates": [-126.60698039945167, 21.924897327713698]}}, {"type": "Feature", "properties": {"norad_id": 58584, "name": "ARKTIKA-M 2", "group": "weather", "lat": 57.13461682695616, "lon": -133.098988929521, "alt_km": 34121.62782804802, "timestamp": "2025-12-07T11:27:49.630443+00:00", "meta": {"OBJECT_NAME": "ARKTIKA-M 2", "OBJECT_ID": "2023-198A", "EPOCH": "2025-12-03T08:34:19.284960", "MEAN_MOTION": 2.00605176, "ECCENTRICITY": 0.68642509, "INCLINATION": 63.2223, "RA_OF_ASC_NODE": 175.9121, "ARG_OF_PERICENTER": 268.1397, "MEAN_ANOMALY": 18.842, "EPHEMERIS_TYPE": 0, "CLASSIFICATION_TYPE": "U", "NORAD_CAT_ID": 58584, "ELEMENT_SET_NO": 999, "REV_AT_EPOCH": 1439, "BSTAR": 0, "MEAN_MOTION_DOT": 2.24e-06, "MEAN_MOTION_DDOT": 0}, "tle": {"line1": "1 58584U 23198A   25337.35716765  .00000224  00000+0  00000+0 0  9999", "line2": "2 58584  63.2223 175.9121 6864250 268.1397  18.8420  2.00605176 14390"}}, "geometry": {"type": "Point", "coordinates": [-133.098988929521, 57.13461682695616]}}, {"type": "Feature", "properties": {"norad_id": 58645, "name": "TIANMU-1 11", "group": "weather", "lat": -75.86507667676396, "lon": 150.31019866526094, "alt_km": 498.00018767578877, "timestamp": "2025-12-07T11:27:49.630458+00:00", "meta": {"OBJECT_NAME": "TIANMU-1 11", "OBJECT_ID": "2023-205A", "EPOCH": "2025-12-06T21:43:58.531584", "MEAN_MOTION": 15.24493464, "ECCENTRICITY": 0.00084703, "INCLINATION": 97.3603, "RA_OF_ASC_NODE": 0.6317, "ARG_OF_PERICENTER": 333.7781, "MEAN_ANOMALY": 26.3027, "EPHEMERIS_TYPE": 0, "CLASSIFICATION_TYPE": "U", "NORAD_CAT_ID": 58645, "ELEMENT_SET_NO": 999, "REV_AT_EPOCH": 10820, "BSTAR": 0.00038339817, "MEAN_MOTION_DOT": 9.365e-05, "MEAN_MOTION_DDOT": 0}, "tle": {"line1": "1 58645U 23205A   25340.90553856  .00009365  00000+0  38340-3 0  9998", "line2": "2 58645  97.3603   0.6317 0008470 333.7781  26.3027 15.24493464108209"}}, "geometry": {"type": "Point", "coordinates": [150.31019866526094, -75.86507667676396]}}, {"type": "Feature", "properties": {"norad_id": 58646, "name": "TIANMU-1 12", "group": "weather", "lat": 66.4457251407887, "lon": -161.75341653611753, "alt_km": 490.02313690821757, "timestamp": "2025-12-07T11:27:49.630468+00:00", "meta": {"OBJECT_NAME": "TIANMU-1 12", "OBJECT_ID": "2023-205B", "EPOCH": "2025-12-06T22:22:09.551136", "MEAN_MOTION": 15.24409833, "ECCENTRICITY": 0.00062852, "INCLINATION": 97.3591, "RA_OF_ASC_NODE": 0.4652, "ARG_OF_PERICENTER": 318.2593, "MEAN_ANOMALY": 41.8164, "EPHEMERIS_TYPE": 0, "CLASSIFICATION_TYPE": "U", "NORAD_CAT_ID": 58646, "ELEMENT_SET_NO": 999, "REV_AT_EPOCH": 10819, "BSTAR": 0.00042463973, "MEAN_MOTION_DOT": 0.00010351, "MEAN_MOTION_DDOT": 0}, "tle": {"line1": "1 58646U 23205B   25340.93205499  .00010351  00000+0  42464-3 0  9998", "line2": "2 58646  97.3591   0.4652 0006285 318.2593  41.8164 15.24409833108196"}}, "geometry": {"type": "Point", "coordinates": [-161.75341653611753, 66.4457251407887]}}, {"type": "Feature", "properties": {"norad_id": 58647, "name": "TIANMU-1 13", "group": "weather", "lat": -70.99920136435402, "lon": 23.252849189565673, "alt_km": 495.6008451376438, "timestamp": "2025-12-07T11:27:49.630481+00:00", "meta": {"OBJECT_NAME": "TIANMU-1 13", "OBJECT_ID": "2023-205C", "EPOCH": "2025-12-06T21:36:08.684928", "MEAN_MOTION": 15.24415462, "ECCENTRICITY": 0.00061568, "INCLINATION": 97.3618, "RA_OF_ASC_NODE": 0.6322, "ARG_OF_PERICENTER": 293.7889, "MEAN_ANOMALY": 66.2703, "EPHEMERIS_TYPE": 0, "CLASSIFICATION_TYPE": "U", "NORAD_CAT_ID": 58647, "ELEMENT_SET_NO": 999, "REV_AT_EPOCH": 10818, "BSTAR": 0.00039582035, "MEAN_MOTION_DOT": 9.644e-05, "MEAN_MOTION_DDOT": 0}, "tle": {"line1": "1 58647U 23205C   25340.90010052  .00009644  00000+0  39582-3 0  9995", "line2": "2 58647  97.3618   0.6322 0006156 293.7889  66.2703 15.24415462108189"}}, "geometry": {"type": "Point", "coordinates": [23.252849189565673, -70.99920136435402]}}, {"type": "Feature", "properties": {"norad_id": 58648, "name": "TIANMU-1 14", "group": "weather", "lat": 18.763767197122096, "lon": -1.961773527471858, "alt_km": 492.2867804536136, "timestamp": "2025-12-07T11:27:49.630491+00:00", "meta": {"OBJECT_NAME": "TIANMU-1 14", "OBJECT_ID": "2023-205D", "EPOCH": "2025-12-06T22:46:40.381536", "MEAN_MOTION": 15.2440006, "ECCENTRICITY": 0.00070564, "INCLINATION": 97.3551, "RA_OF_ASC_NODE": 0.0345, "ARG_OF_PERICENTER": 298.3236, "MEAN_ANOMALY": 61.7289, "EPHEMERIS_TYPE": 0, "CLASSIFICATION_TYPE": "U", "NORAD_CAT_ID": 58648, "ELEMENT_SET_NO": 999, "REV_AT_EPOCH": 10819, "BSTAR": 0.00040849569, "MEAN_MOTION_DOT": 9.953e-05, "MEAN_MOTION_DDOT": 0}, "tle": {"line1": "1 58648U 23205D   25340.94907849  .00009953  00000+0  40850-3 0  9992", "line2": "2 58648  97.3551   0.0345 0007056 298.3236  61.7289 15.24400060108190"}}, "geometry": {"type": "Point", "coordinates": [-1.961773527471858, 18.763767197122096]}}, {"type": "Feature", "properties": {"norad_id": 58660, "name": "TIANMU-1 19", "group": "weather", "lat": -30.85754383148336, "lon": -91.95176899604962, "alt_km": 487.65055019117426, "timestamp": "2025-12-07T11:27:49.630504+00:00", "meta": {"OBJECT_NAME": "TIANMU-1 19", "OBJECT_ID": "2023-208A", "EPOCH": "2025-12-06T21:57:59.050656", "MEAN_MOTION": 15.27690246, "ECCENTRICITY": 0.00040515, "INCLINATION": 97.4398, "RA_OF_ASC_NODE": 91.9651, "ARG_OF_PERICENTER": 279.4167, "MEAN_ANOMALY": 80.6614, "EPHEMERIS_TYPE": 0, "CLASSIFICATION_TYPE": "U", "NORAD_CAT_ID": 58660, "ELEMENT_SET_NO": 999, "REV_AT_EPOCH": 10793, "BSTAR": 0.00052873414, "MEAN_MOTION_DOT": 0.00014249, "MEAN_MOTION_DDOT": 0}, "tle": {"line1": "1 58660U 23208A   25340.91526679  .00014249  00000+0  52873-3 0  9996", "line2": "2 58660  97.4398  91.9651 0004051 279.4167  80.6614 15.27690246107931"}}, "geometry": {"type": "Point", "coordinates": [-91.95176899604962, -30.85754383148336]}}, {"type": "Feature", "properties": {"norad_id": 58661, "name": "TIANMU-1 20", "group": "weather", "lat": -79.64781642824882, "lon": -132.65277286746675, "alt_km": 482.53391826744974, "timestamp": "2025-12-07T11:27:49.630514+00:00", "meta": {"OBJECT_NAME": "TIANMU-1 20", "OBJECT_ID": "2023-208B", "EPOCH": "2025-12-06T20:10:49.409760", "MEAN_MOTION": 15.28880457, "ECCENTRICITY": 0.00063625, "INCLINATION": 97.4334, "RA_OF_ASC_NODE": 92.3327, "ARG_OF_PERICENTER": 290.8605, "MEAN_ANOMALY": 69.1953, "EPHEMERIS_TYPE": 0, "CLASSIFICATION_TYPE": "U", "NORAD_CAT_ID": 58661, "ELEMENT_SET_NO": 999, "REV_AT_EPOCH": 10799, "BSTAR": 0.00052498833, "MEAN_MOTION_DOT": 0.00014677, "MEAN_MOTION_DDOT": 0}, "tle": {"line1": "1 58661U 23208B   25340.84084965  .00014677  00000+0  52499-3 0  9995", "line2": "2 58661  97.4334  92.3327 0006362 290.8605  69.1953 15.28880457107998"}}, "geometry": {"type": "Point", "coordinates": [-132.65277286746675, -79.64781642824882]}}]}